{
  "schema": "int-telemetry-real-tle-snapshot/v1",
  "source": "celestrak",
  "group": "STARLINK",
  "format": "celestrak-gp-json",
  "source_url": "https://celestrak.org/NORAD/elements/gp.php?NAME=STARLINK&FORMAT=JSON",
  "downloaded_at": "2026-07-01T09:45:20.184Z",
  "generated_at": "2026-07-01T09:45:20.328Z",
  "fingerprint": "b8e2cd48",
  "shell_id": "starlink-real-53.2deg-545km",
  "catalog_count": 10658,
  "shell_count": 1056,
  "selected_count": 64,
  "mean_altitude_km": 544.89,
  "mean_inclination_deg": 53.1617,
  "mean_mean_motion_rev_per_day": 15.09493346,
  "layout": {
    "planes": 8,
    "satellites_per_plane": 8,
    "selection_strategy": "target-shell-raan-clusters-even-slot-sampling",
    "raan_cluster_threshold_deg": 1.5,
    "target_inclination_deg": 53,
    "target_altitude_km": 550,
    "selected_shell_key": "53.0deg-550km",
    "target_shell_distance": 21.03
  },
  "satellites": [
    {
      "satellite_id": "P08-S05",
      "norad_id": 52456,
      "satellite_name": "STARLINK-3896",
      "cospar_id": "2022-049F",
      "shell_id": "starlink-real-53.2deg-545km",
      "plane_id": 7,
      "slot_id": 4,
      "epoch": "2026-06-25T17:39:26.430048",
      "inclination": 53.1599,
      "raan": 303.9352,
      "eccentricity": 0.0001139,
      "argument_of_perigee": 91.07900000000001,
      "mean_anomaly": 269.0332000000001,
      "mean_motion": 15.08809964,
      "bstar": 0.00044396,
      "status": "active",
      "raw_omm": {
        "OBJECT_NAME": "STARLINK-3896",
        "OBJECT_ID": "2022-049F",
        "EPOCH": "2026-06-25T17:39:26.430048",
        "MEAN_MOTION": 15.08809964,
        "ECCENTRICITY": 0.0001139,
        "INCLINATION": 53.1599,
        "RA_OF_ASC_NODE": 303.9352,
        "ARG_OF_PERICENTER": 91.079,
        "MEAN_ANOMALY": 269.0332,
        "EPHEMERIS_TYPE": 0,
        "CLASSIFICATION_TYPE": "U",
        "NORAD_CAT_ID": 52456,
        "ELEMENT_SET_NO": 999,
        "REV_AT_EPOCH": 22842,
        "BSTAR": 0.00044396,
        "MEAN_MOTION_DOT": 0.00006779,
        "MEAN_MOTION_DDOT": 0
      },
      "source": "celestrak",
      "source_url": "https://celestrak.org/NORAD/elements/gp.php?NAME=STARLINK&FORMAT=JSON",
      "catalog_fingerprint": "b8e2cd48"
    },
    {
      "satellite_id": "P08-S06",
      "norad_id": 52453,
      "satellite_name": "STARLINK-3872",
      "cospar_id": "2022-049C",
      "shell_id": "starlink-real-53.2deg-545km",
      "plane_id": 7,
      "slot_id": 5,
      "epoch": "2026-06-25T14:37:53.247648",
      "inclination": 53.1604,
      "raan": 304.50070000000005,
      "eccentricity": 0.0001198,
      "argument_of_perigee": 83.09480000000002,
      "mean_anomaly": 277.01790000000005,
      "mean_motion": 15.08835798,
      "bstar": 0.00013767,
      "status": "active",
      "raw_omm": {
        "OBJECT_NAME": "STARLINK-3872",
        "OBJECT_ID": "2022-049C",
        "EPOCH": "2026-06-25T14:37:53.247648",
        "MEAN_MOTION": 15.08835798,
        "ECCENTRICITY": 0.0001198,
        "INCLINATION": 53.1604,
        "RA_OF_ASC_NODE": 304.5007,
        "ARG_OF_PERICENTER": 83.0948,
        "MEAN_ANOMALY": 277.0179,
        "EPHEMERIS_TYPE": 0,
        "CLASSIFICATION_TYPE": "U",
        "NORAD_CAT_ID": 52453,
        "ELEMENT_SET_NO": 999,
        "REV_AT_EPOCH": 22840,
        "BSTAR": 0.00013767,
        "MEAN_MOTION_DOT": 0.00001904,
        "MEAN_MOTION_DDOT": 0
      },
      "source": "celestrak",
      "source_url": "https://celestrak.org/NORAD/elements/gp.php?NAME=STARLINK&FORMAT=JSON",
      "catalog_fingerprint": "b8e2cd48"
    },
    {
      "satellite_id": "P08-S07",
      "norad_id": 52140,
      "satellite_name": "STARLINK-3682",
      "cospar_id": "2022-029BE",
      "shell_id": "starlink-real-53.2deg-545km",
      "plane_id": 7,
      "slot_id": 6,
      "epoch": "2026-06-26T03:36:51.482304",
      "inclination": 53.1599,
      "raan": 302.068,
      "eccentricity": 0.0001266,
      "argument_of_perigee": 87.0523,
      "mean_anomaly": 273.0613000000001,
      "mean_motion": 15.08840016,
      "bstar": 0.000082016,
      "status": "active",
      "raw_omm": {
        "OBJECT_NAME": "STARLINK-3682",
        "OBJECT_ID": "2022-029BE",
        "EPOCH": "2026-06-26T03:36:51.482304",
        "MEAN_MOTION": 15.08840016,
        "ECCENTRICITY": 0.0001266,
        "INCLINATION": 53.1599,
        "RA_OF_ASC_NODE": 302.068,
        "ARG_OF_PERICENTER": 87.0523,
        "MEAN_ANOMALY": 273.0613,
        "EPHEMERIS_TYPE": 0,
        "CLASSIFICATION_TYPE": "U",
        "NORAD_CAT_ID": 52140,
        "ELEMENT_SET_NO": 999,
        "REV_AT_EPOCH": 23731,
        "BSTAR": 0.000082016,
        "MEAN_MOTION_DOT": 0.00001018,
        "MEAN_MOTION_DDOT": 0
      },
      "source": "celestrak",
      "source_url": "https://celestrak.org/NORAD/elements/gp.php?NAME=STARLINK&FORMAT=JSON",
      "catalog_fingerprint": "b8e2cd48"
    },
    {
      "satellite_id": "P08-S08",
      "norad_id": 52134,
      "satellite_name": "STARLINK-3721",
      "cospar_id": "2022-029AY",
      "shell_id": "starlink-real-53.2deg-545km",
      "plane_id": 7,
      "slot_id": 7,
      "epoch": "2026-06-25T18:36:21.669984",
      "inclination": 53.159,
      "raan": 303.7568,
      "eccentricity": 0.0001929,
      "argument_of_perigee": 92.79590000000002,
      "mean_anomaly": 267.32529999999997,
      "mean_motion": 15.0882794,
      "bstar": 0.0000045408,
      "status": "active",
      "raw_omm": {
        "OBJECT_NAME": "STARLINK-3721",
        "OBJECT_ID": "2022-029AY",
        "EPOCH": "2026-06-25T18:36:21.669984",
        "MEAN_MOTION": 15.0882794,
        "ECCENTRICITY": 0.0001929,
        "INCLINATION": 53.159,
        "RA_OF_ASC_NODE": 303.7568,
        "ARG_OF_PERICENTER": 92.7959,
        "MEAN_ANOMALY": 267.3253,
        "EPHEMERIS_TYPE": 0,
        "CLASSIFICATION_TYPE": "U",
        "NORAD_CAT_ID": 52134,
        "ELEMENT_SET_NO": 999,
        "REV_AT_EPOCH": 23725,
        "BSTAR": 0.0000045408,
        "MEAN_MOTION_DOT": -0.00000216,
        "MEAN_MOTION_DDOT": 0
      },
      "source": "celestrak",
      "source_url": "https://celestrak.org/NORAD/elements/gp.php?NAME=STARLINK&FORMAT=JSON",
      "catalog_fingerprint": "b8e2cd48"
    }
  ]
}