STARLINK-3721           
1 52134U 22029AY  26176.77525081 -.00000216  00000+0  45408-5 0  9992
2 52134  53.1590 303.7568 0001929  92.7959 267.3253 15.08827940237255
STARLINK-3682           
1 52140U 22029BE  26177.15059586  .00001018  00000+0  82016-4 0  9999
2 52140  53.1599 302.0680 0001266  87.0523 273.0613 15.08840016237316
STARLINK-3872           
1 52453U 22049C   26176.60964407  .00001904  00000+0  13767-3 0  9994
2 52453  53.1604 304.5007 0001198  83.0948 277.0179 15.08835798228403
STARLINK-3896           
1 52456U 22049F   26176.73572257  .00006779  00000+0  44396-3 0  9996
2 52456  53.1599 303.9352 0001139  91.0790 269.0332 15.08809964228424
